IRIDIUM 119             
1 42959U 17061E   23242.85511642  .00000285  00000+0  94868-4 0  9992
2 42959  86.3920  92.0986 0002361  89.9740 270.1727 14.34221174308424
IRIDIUM 107             
1 42960U 17061F   23242.87414773  .00000296  00000+0  98647-4 0  9994
2 42960  86.3921  92.1057 0002359  84.6927 275.4538 14.34220378308437
IRIDIUM 132             
1 42961U 17061G   23243.64794419  .00000282  00000+0  93520-4 0  9999
2 42961  86.3919  91.7681 0002358  87.7542 272.3923 14.34220348308542
IRIDIUM 136             
1 42962U 17061H   23243.67965206  .00000279  00000+0  92482-4 0  9999
2 42962  86.3918  91.7568 0002139  94.9474 265.1965 14.34221780308566
IRIDIUM 139             
1 42963U 17061J   23243.68600185  .00000282  00000+0  93481-4 0  9997
2 42963  86.3921  91.8001 0002340  85.6072 274.5391 14.34219867308570
IRIDIUM 125             
1 42964U 17061K   23242.83609596  .00000284  00000+0  94377-4 0  9996
2 42964  86.3923  92.1982 0002403  88.2795 271.8675 14.34219420308464
IRIDIUM 135             
1 43070U 17083A   23243.71721263  .00000318  00000+0  10655-3 0  9997
2 43070  86.3987  28.4870 0001981  83.6392 276.5029 14.34220546297882
IRIDIUM 138             
1 43071U 17083B   23243.67281477  .00000369  00000+0  12454-3 0  9996
2 43071  86.3976  28.2591 0002311  94.8680 265.2780 14.34218931297863
