<?xml version="1.0" encoding="UTF-8"?>
<ndm xmlns:xsi="http://www.w3.org/2001/XMLSchema-instance" xsi:noNamespaceSchemaLocation="https://sanaregistry.org/r/ndmxml_unqualified/ndmxml-2.0.0-master-2.0.xsd">
<omm id="CCSDS_OMM_VERS" version="2.0">
<header><CREATION_DATE/><ORIGINATOR/></header><body><segment><metadata><OBJECT_NAME>IRIDIUM 119</OBJECT_NAME><OBJECT_ID>2017-061E</OBJECT_ID><CENTER_NAME>EARTH</CENTER_NAME><REF_FRAME>TEME</REF_FRAME><TIME_SYSTEM>UTC</TIME_SYSTEM><MEAN_ELEMENT_THEORY>SGP4</MEAN_ELEMENT_THEORY></metadata><data><meanElements><EPOCH>2023-08-30T20:31:22.058688</EPOCH><MEAN_MOTION>14.34221174</MEAN_MOTION><ECCENTRICITY>.0002361</ECCENTRICITY><INCLINATION>86.3920</INCLINATION><RA_OF_ASC_NODE>92.0986</RA_OF_ASC_NODE><ARG_OF_PERICENTER>89.9740</ARG_OF_PERICENTER><MEAN_ANOMALY>270.1727</MEAN_ANOMALY></meanElements><tleParameters><EPHEMERIS_TYPE>0</EPHEMERIS_TYPE><CLASSIFICATION_TYPE>U</CLASSIFICATION_TYPE><NORAD_CAT_ID>42959</NORAD_CAT_ID><ELEMENT_SET_NO>999</ELEMENT_SET_NO><REV_AT_EPOCH>30842</REV_AT_EPOCH><BSTAR>.94868E-4</BSTAR><MEAN_MOTION_DOT>.285E-5</MEAN_MOTION_DOT><MEAN_MOTION_DDOT>0</MEAN_MOTION_DDOT></tleParameters></data></segment></body></omm>
<omm id="CCSDS_OMM_VERS" version="2.0">
<header><CREATION_DATE/><ORIGINATOR/></header><body><segment><metadata><OBJECT_NAME>IRIDIUM 107</OBJECT_NAME><OBJECT_ID>2017-061F</OBJECT_ID><CENTER_NAME>EARTH</CENTER_NAME><REF_FRAME>TEME</REF_FRAME><TIME_SYSTEM>UTC</TIME_SYSTEM><MEAN_ELEMENT_THEORY>SGP4</MEAN_ELEMENT_THEORY></metadata><data><meanElements><EPOCH>2023-08-30T20:58:46.363872</EPOCH><MEAN_MOTION>14.34220378</MEAN_MOTION><ECCENTRICITY>.0002359</ECCENTRICITY><INCLINATION>86.3921</INCLINATION><RA_OF_ASC_NODE>92.1057</RA_OF_ASC_NODE><ARG_OF_PERICENTER>84.6927</ARG_OF_PERICENTER><MEAN_ANOMALY>275.4538</MEAN_ANOMALY></meanElements><tleParameters><EPHEMERIS_TYPE>0</EPHEMERIS_TYPE><CLASSIFICATION_TYPE>U</CLASSIFICATION_TYPE><NORAD_CAT_ID>42960</NORAD_CAT_ID><ELEMENT_SET_NO>999</ELEMENT_SET_NO><REV_AT_EPOCH>30843</REV_AT_EPOCH><BSTAR>.98647E-4</BSTAR><MEAN_MOTION_DOT>.296E-5</MEAN_MOTION_DOT><MEAN_MOTION_DDOT>0</MEAN_MOTION_DDOT></tleParameters></data></segment></body></omm>
<omm id="CCSDS_OMM_VERS" version="2.0">
<header><CREATION_DATE/><ORIGINATOR/></header><body><segment><metadata><OBJECT_NAME>IRIDIUM 132</OBJECT_NAME><OBJECT_ID>2017-061G</OBJECT_ID><CENTER_NAME>EARTH</CENTER_NAME><REF_FRAME>TEME</REF_FRAME><TIME_SYSTEM>UTC</TIME_SYSTEM><MEAN_ELEMENT_THEORY>SGP4</MEAN_ELEMENT_THEORY></metadata><data><meanElements><EPOCH>2023-08-31T15:33:02.378016</EPOCH><MEAN_MOTION>14.34220348</MEAN_MOTION><ECCENTRICITY>.0002358</ECCENTRICITY><INCLINATION>86.3919</INCLINATION><RA_OF_ASC_NODE>91.7681</RA_OF_ASC_NODE><ARG_OF_PERICENTER>87.7542</ARG_OF_PERICENTER><MEAN_ANOMALY>272.3923</MEAN_ANOMALY></meanElements><tleParameters><EPHEMERIS_TYPE>0</EPHEMERIS_TYPE><CLASSIFICATION_TYPE>U</CLASSIFICATION_TYPE><NORAD_CAT_ID>42961</NORAD_CAT_ID><ELEMENT_SET_NO>999</ELEMENT_SET_NO><REV_AT_EPOCH>30854</REV_AT_EPOCH><BSTAR>.9352E-4</BSTAR><MEAN_MOTION_DOT>.282E-5</MEAN_MOTION_DOT><MEAN_MOTION_DDOT>0</MEAN_MOTION_DDOT></tleParameters></data></segment></body></omm>
<omm id="CCSDS_OMM_VERS" version="2.0">
<header><CREATION_DATE/><ORIGINATOR/></header><body><segment><metadata><OBJECT_NAME>IRIDIUM 136</OBJECT_NAME><OBJECT_ID>2017-061H</OBJECT_ID><CENTER_NAME>EARTH</CENTER_NAME><REF_FRAME>TEME</REF_FRAME><TIME_SYSTEM>UTC</TIME_SYSTEM><MEAN_ELEMENT_THEORY>SGP4</MEAN_ELEMENT_THEORY></metadata><data><meanElements><EPOCH>2023-08-31T16:18:41.937984</EPOCH><MEAN_MOTION>14.34221780</MEAN_MOTION><ECCENTRICITY>.0002139</ECCENTRICITY><INCLINATION>86.3918</INCLINATION><RA_OF_ASC_NODE>91.7568</RA_OF_ASC_NODE><ARG_OF_PERICENTER>94.9474</ARG_OF_PERICENTER><MEAN_ANOMALY>265.1965</MEAN_ANOMALY></meanElements><tleParameters><EPHEMERIS_TYPE>0</EPHEMERIS_TYPE><CLASSIFICATION_TYPE>U</CLASSIFICATION_TYPE><NORAD_CAT_ID>42962</NORAD_CAT_ID><ELEMENT_SET_NO>999</ELEMENT_SET_NO><REV_AT_EPOCH>30856</REV_AT_EPOCH><BSTAR>.92482E-4</BSTAR><MEAN_MOTION_DOT>.279E-5</MEAN_MOTION_DOT><MEAN_MOTION_DDOT>0</MEAN_MOTION_DDOT></tleParameters></data></segment></body></omm>
<omm id="CCSDS_OMM_VERS" version="2.0">
<header><CREATION_DATE/><ORIGINATOR/></header><body><segment><metadata><OBJECT_NAME>IRIDIUM 139</OBJECT_NAME><OBJECT_ID>2017-061J</OBJECT_ID><CENTER_NAME>EARTH</CENTER_NAME><REF_FRAME>TEME</REF_FRAME><TIME_SYSTEM>UTC</TIME_SYSTEM><MEAN_ELEMENT_THEORY>SGP4</MEAN_ELEMENT_THEORY></metadata><data><meanElements><EPOCH>2023-08-31T16:27:50.559840</EPOCH><MEAN_MOTION>14.34219867</MEAN_MOTION><ECCENTRICITY>.000234</ECCENTRICITY><INCLINATION>86.3921</INCLINATION><RA_OF_ASC_NODE>91.8001</RA_OF_ASC_NODE><ARG_OF_PERICENTER>85.6072</ARG_OF_PERICENTER><MEAN_ANOMALY>274.5391</MEAN_ANOMALY></meanElements><tleParameters><EPHEMERIS_TYPE>0</EPHEMERIS_TYPE><CLASSIFICATION_TYPE>U</CLASSIFICATION_TYPE><NORAD_CAT_ID>42963</NORAD_CAT_ID><ELEMENT_SET_NO>999</ELEMENT_SET_NO><REV_AT_EPOCH>30857</REV_AT_EPOCH><BSTAR>.93481E-4</BSTAR><MEAN_MOTION_DOT>.282E-5</MEAN_MOTION_DOT><MEAN_MOTION_DDOT>0</MEAN_MOTION_DDOT></tleParameters></data></segment></body></omm>
<omm id="CCSDS_OMM_VERS" version="2.0">
<header><CREATION_DATE/><ORIGINATOR/></header><body><segment><metadata><OBJECT_NAME>IRIDIUM 125</OBJECT_NAME><OBJECT_ID>2017-061K</OBJECT_ID><CENTER_NAME>EARTH</CENTER_NAME><REF_FRAME>TEME</REF_FRAME><TIME_SYSTEM>UTC</TIME_SYSTEM><MEAN_ELEMENT_THEORY>SGP4</MEAN_ELEMENT_THEORY></metadata><data><meanElements><EPOCH>2023-08-30T20:03:58.690944</EPOCH><MEAN_MOTION>14.34219420</MEAN_MOTION><ECCENTRICITY>.0002403</ECCENTRICITY><INCLINATION>86.3923</INCLINATION><RA_OF_ASC_NODE>92.1982</RA_OF_ASC_NODE><ARG_OF_PERICENTER>88.2795</ARG_OF_PERICENTER><MEAN_ANOMALY>271.8675</MEAN_ANOMALY></meanElements><tleParameters><EPHEMERIS_TYPE>0</EPHEMERIS_TYPE><CLASSIFICATION_TYPE>U</CLASSIFICATION_TYPE><NORAD_CAT_ID>42964</NORAD_CAT_ID><ELEMENT_SET_NO>999</ELEMENT_SET_NO><REV_AT_EPOCH>30846</REV_AT_EPOCH><BSTAR>.94377E-4</BSTAR><MEAN_MOTION_DOT>.284E-5</MEAN_MOTION_DOT><MEAN_MOTION_DDOT>0</MEAN_MOTION_DDOT></tleParameters></data></segment></body></omm>
<omm id="CCSDS_OMM_VERS" version="2.0">
<header><CREATION_DATE/><ORIGINATOR/></header><body><segment><metadata><OBJECT_NAME>IRIDIUM 135</OBJECT_NAME><OBJECT_ID>2017-083A</OBJECT_ID><CENTER_NAME>EARTH</CENTER_NAME><REF_FRAME>TEME</REF_FRAME><TIME_SYSTEM>UTC</TIME_SYSTEM><MEAN_ELEMENT_THEORY>SGP4</MEAN_ELEMENT_THEORY></metadata><data><meanElements><EPOCH>2023-08-31T17:12:47.171232</EPOCH><MEAN_MOTION>14.34220546</MEAN_MOTION><ECCENTRICITY>.0001981</ECCENTRICITY><INCLINATION>86.3987</INCLINATION><RA_OF_ASC_NODE>28.4870</RA_OF_ASC_NODE><ARG_OF_PERICENTER>83.6392</ARG_OF_PERICENTER><MEAN_ANOMALY>276.5029</MEAN_ANOMALY></meanElements><tleParameters><EPHEMERIS_TYPE>0</EPHEMERIS_TYPE><CLASSIFICATION_TYPE>U</CLASSIFICATION_TYPE><NORAD_CAT_ID>43070</NORAD_CAT_ID><ELEMENT_SET_NO>999</ELEMENT_SET_NO><REV_AT_EPOCH>29788</REV_AT_EPOCH><BSTAR>.10655E-3</BSTAR><MEAN_MOTION_DOT>.318E-5</MEAN_MOTION_DOT><MEAN_MOTION_DDOT>0</MEAN_MOTION_DDOT></tleParameters></data></segment></body></omm>
<omm id="CCSDS_OMM_VERS" version="2.0">
<header><CREATION_DATE/><ORIGINATOR/></header><body><segment><metadata><OBJECT_NAME>IRIDIUM 138</OBJECT_NAME><OBJECT_ID>2017-083B</OBJECT_ID><CENTER_NAME>EARTH</CENTER_NAME><REF_FRAME>TEME</REF_FRAME><TIME_SYSTEM>UTC</TIME_SYSTEM><MEAN_ELEMENT_THEORY>SGP4</MEAN_ELEMENT_THEORY></metadata><data><meanElements><EPOCH>2023-08-31T16:08:51.196128</EPOCH><MEAN_MOTION>14.34218931</MEAN_MOTION><ECCENTRICITY>.0002311</ECCENTRICITY><INCLINATION>86.3976</INCLINATION><RA_OF_ASC_NODE>28.2591</RA_OF_ASC_NODE><ARG_OF_PERICENTER>94.8680</ARG_OF_PERICENTER><MEAN_ANOMALY>265.2780</MEAN_ANOMALY></meanElements><tleParameters><EPHEMERIS_TYPE>0</EPHEMERIS_TYPE><CLASSIFICATION_TYPE>U</CLASSIFICATION_TYPE><NORAD_CAT_ID>43071</NORAD_CAT_ID><ELEMENT_SET_NO>999</ELEMENT_SET_NO><REV_AT_EPOCH>29786</REV_AT_EPOCH><BSTAR>.12454E-3</BSTAR><MEAN_MOTION_DOT>.369E-5</MEAN_MOTION_DOT><MEAN_MOTION_DDOT>0</MEAN_MOTION_DDOT></tleParameters></data></segment></body></omm>

</ndm>
